COSMOS 1933             
1 18958U 88020A   26001.93449975  .00008276  00000+0  41344-3 0  9999
2 18958  82.5147 316.9229 0006252  77.3849 282.8083 15.17319406 40108
SL-3 R/B                
1 19046U 88032B   26001.95538294  .00009459  00000+0  45059-3 0  9997
2 19046  97.5092 345.5404 0028373 105.5023 254.9347 15.18984340 41976
SL-16 R/B               
1 19120U 88039B   26001.97004114  .00000234  00000+0  13345-3 0  9993
2 19120  71.0131 209.6239 0019545  81.5629 278.7710 14.19601071948917
COSMOS 1953             
1 19210U 88050A   25363.34859606  .00008063  00000+0  30114-3 0  9992
2 19210  82.5080 228.9139 0012535  18.6006 341.5688 15.27141359 27045
SL-8 R/B                
1 19257U 88053B   26001.98929274  .00000479  00000+0  16390-3 0  9998
2 19257  74.0462 235.4002 0018998  71.8948  31.1040 14.38873868967004
COSMOS 1975             
1 19573U 88093A   26001.96912497  .00012163  00000+0  45932-3 0  9997
2 19573  82.5187 184.5724 0012624  48.7811 311.4513 15.26807118  9223
SL-14 R/B               
1 19574U 88093B   26001.79058154  .00001065  00000+0  12005-3 0  9994
2 19574  82.5320 104.8521 0019284 258.7524 219.2049 14.85576402991105
SL-16 R/B               
1 19650U 88102B   26001.94277029 -.00000162  00000+0 -57529-4 0  9991
2 19650  71.0004 291.9348 0011975 117.0975 243.1372 14.16142562917443
INTERCOSMOS 24          
1 20261U 89080A   26001.92272730  .00000881  00000+0  25048-3 0  9995
2 20261  82.6066 147.8323 1188917  87.7211 285.9210 12.59473509658393
SL-14 R/B               
1 20262U 89080C   26001.66549811  .00000583  00000+0  17448-3 0  9998
2 20262  82.5912 216.2276 1230207 338.0518  17.1916 12.50430537651771
DELTA 1 R/B             
1 20323U 89089B   26001.57471375  .00000809  00000+0  20915-3 0  9998
2 20323  97.0739 219.6679 0068515 335.8895  23.9100 14.50592539886003
ARIANE 40 R/B           
1 20443U 90005H   26001.75352629  .00000656  00000+0  22229-3 0  9991
2 20443  98.3215  64.3632 0010870  50.8487 309.3666 14.39816292883170
